ONEWEB-0578             
1 56067U 23043X   24284.52443901  .00000065  00000+0  12617-3 0  9994
2 56067  87.9368   6.3844 0001794  97.9628 262.1710 13.21824678 77032
ONEWEB-0579             
1 56068U 23043Y   24284.51497999  .00000069  00000+0  13511-3 0  9998
2 56068  87.9364   6.3801 0002216 107.3200 252.8177 13.21823943 77042
ONEWEB-0581             
1 56069U 23043Z   24284.56284470  .00000101  00000+0  22945-3 0  9990
2 56069  87.9155 351.2228 0001828 117.8140 242.3177 13.16597749 78088
ONEWEB-0609             
1 56070U 23043AA  24284.71659760  .00000095  00000+0  21804-3 0  9992
2 56070  87.9123  21.5108 0001906  99.1608 260.9738 13.15550724 76557
ONEWEB-0613             
1 56071U 23043AB  24284.55972632  .00000197  00000+0  48908-3 0  9998
2 56071  87.9126  21.5426 0002142 104.8910 255.2458 13.15552466 75625
ONEWEB-0630             
1 56072U 23043AC  24284.55499356  .00000142  00000+0  34249-3 0  9999
2 56072  87.9122  21.5303 0002237 102.2618 257.8763 13.15550112 75610
ONEWEB-0632             
1 56073U 23043AD  24284.55021210  .00000100  00000+0  23087-3 0  9992
2 56073  87.9124  21.5503 0001839 112.7789 247.3536 13.15551808 75612
ONEWEB-0633             
1 56074U 23043AE  24284.54388515  .00000006  00000+0 -19243-4 0  9992
2 56074  87.9118  21.5288 0002417  98.7875 261.3529 13.15551224 76507
